OBJECT_NAME,OBJECT_ID,EPOCH,MEAN_MOTION,ECCENTRICITY,INCLINATION,RA_OF_ASC_NODE,ARG_OF_PERICENTER,MEAN_ANOMALY,EPHEMERIS_TYPE,CLASSIFICATION_TYPE,NORAD_CAT_ID,ELEMENT_SET_NO,REV_AT_EPOCH,BSTAR,MEAN_MOTION_DOT,MEAN_MOTION_DDOT
LEMUR-2-ALISIA,2025-009DB,2026-06-15T11:18:12.983040,15.02749374,.00018062,97.6962,248.6524,190.9970,169.1215,0,U,62706,999,9990,.44569121E-3,.5898E-4,0
LEMUR-2-ROUNDTRIPPER,2025-009DG,2026-06-15T11:55:22.215360,15.03769461,.00051704,97.7260,249.1780,135.6979,224.4661,0,U,62711,999,7737,.5652816E-3,.7706E-4,0
LEMUR-2-MYNAMEISJEFF,2025-009DH,2026-06-15T11:53:05.418240,15.03776954,.00033897,97.7307,249.5566,156.9406,203.1972,0,U,62712,999,7737,.52430306E-3,.7143E-4,0
LEMUR-2-LEIA-PHILIP,2025-052AN,2026-06-15T14:23:15.613728,14.97316883,.00024076,97.6844,58.5773,214.4075,145.6992,0,U,63246,999,6843,.97527739E-4,.1074E-4,0
LEMUR-2-LIA-MARTIN,2025-052AQ,2026-06-15T14:31:16.519584,14.97795438,.00028113,97.6905,59.0558,158.2890,201.8452,0,U,63248,999,6844,.28436451E-3,.3282E-4,0
LEMUR-2-DELOITTE-1,2025-052BB,2026-06-15T13:56:58.408512,14.97592673,.00033164,97.6922,59.3606,100.5810,259.5785,0,U,63259,999,6845,.3411507E-3,.3929E-4,0
LEMUR-2-EMERSONROSE,2025-052BD,2026-06-15T10:11:15.427968,14.99069017,.00018335,97.6893,59.7622,66.9977,293.1439,0,U,63261,999,6847,.2506987E-3,.2984E-4,0
LEMUR-2-MARACHE-FRAN,2025-052BE,2026-06-15T14:25:37.090272,15.00089438,.00055271,97.6950,60.2492,29.0311,331.1219,0,U,63262,999,6852,.37822413E-3,.4657E-4,0
LEMUR-2-THEFALCONER,2025-052BG,2026-06-15T14:34:37.435008,14.97381879,.00028712,97.6873,59.0093,38.0678,322.0746,0,U,63264,999,6845,.22107773E-3,.2511E-4,0
LEMUR-2-UNTITLED-SC,2025-061A,2026-06-15T10:27:34.867008,15.13465431,.00169185,97.5631,141.8102,271.3325,88.5968,0,U,63351,999,6732,.19057922E-3,.3352E-4,0
LEMUR-2-ESPERANZA,2025-061B,2026-06-15T13:05:12.909984,15.13560711,.00165436,97.5641,142.0122,270.1738,89.7597,0,U,63352,999,6734,.24084773E-3,.4265E-4,0
LEMUR-2-KREMPEL-BRO2,2025-061C,2026-06-15T12:09:33.931008,15.13996367,.00174214,97.5687,142.5049,261.9607,97.9648,0,U,63353,999,6735,.19449602E-3,.3475E-4,0
LEMUR-2-THERMORAPTOR,2025-061D,2026-06-15T10:08:42.266688,15.14074362,.00171822,97.5691,142.4968,261.1258,98.8028,0,U,63354,999,6734,.22651163E-3,.4067E-4,0
LEMUR-2-NEUROSPICY,2025-061E,2026-06-15T11:03:16.116480,15.14191207,.00149773,97.5619,142.1621,264.9974,94.9548,0,U,63355,999,6735,.21046474E-3,.3784E-4,0
LEMUR-2-TILLINFINITY,2025-061F,2026-06-15T11:55:00.370848,15.14776146,.00162978,97.5602,142.4869,251.5895,108.3565,0,U,63356,999,6738,.21731008E-3,.3976E-4,0
LEMUR-2-KREMPEL-BRO1,2025-061G,2026-06-15T11:16:29.600256,15.14582537,.00169215,97.5606,142.3770,253.0464,106.8913,0,U,63357,999,6737,.22516312E-3,.4101E-4,0
LEMUR-2-LANGER2SPACE,2025-061H,2026-06-15T10:19:00.634080,15.14277501,.00148927,97.5609,142.1519,263.2026,96.7512,0,U,63358,999,6735,.20682533E-3,.3726E-4,0
LEMUR-2-BALTO,2025-052BH,2026-06-15T12:27:29.340576,15.00071116,.00069137,97.6898,60.1474,62.4250,297.7675,0,U,63395,999,6851,.41707124E-3,.514E-4,0
LEMUR-2-KRISH,2025-135AK,2026-06-15T14:28:23.651328,14.96195502,.00017456,97.7748,281.4897,101.7317,258.4101,0,U,64561,999,5368,.45053988E-3,.5022E-4,0
LEMUR-2-HUBBLE-4,2025-135AP,2026-06-15T14:16:57.275040,14.93193536,.00010375,97.7698,280.5204,318.7058,41.4083,0,U,64565,999,5363,.15587353E-3,.1571E-4,0
LEMUR-2-SEJONG-2,2025-135BL,2026-06-15T13:36:01.545984,14.96685852,.00039809,97.7690,281.5985,346.0836,14.0275,0,U,64586,999,5370,.28042912E-3,.3143E-4,0
LEMUR-2-HUBBLE-5,2025-135BT,2026-06-15T13:12:15.018912,14.94132272,.0005227,97.7717,281.1073,0.1804,359.9417,0,U,64840,999,5366,.12688974E-3,.13E-4,0
LEMUR-2-KARENDARRELL,2025-135BU,2026-06-15T14:00:56.805984,15.00091023,.00095569,97.7682,282.7942,208.2998,151.7707,0,U,64841,999,5377,.52815962E-3,.6531E-4,0
LEMUR-2-LUCILLE-ROSE,2025-135BV,2026-06-15T13:23:09.686400,15.00138198,.00110471,97.7772,282.7858,288.9914,71.0112,0,U,65403,999,4839,.4556499E-3,.5634E-4,0
LEMUR-2-AFFIE-WAUWIE,2025-248C,2026-06-15T03:48:26.154720,15.27089116,.00076165,45.3893,125.9769,70.2843,289.8867,0,U,66295,999,3428,.5463527E-3,.14524E-3,0
LEMUR-2-DEANANDMAEVE,2025-276N,2026-06-15T03:24:15.285312,15.19713195,.00059262,97.4218,239.6511,21.6090,338.5394,0,U,66678,999,3010,.31212441E-3,.6603E-4,0
LEMUR-2-STAS-GORBUK,2025-276W,2026-06-15T03:44:27.789216,15.19361958,.00052453,97.4253,239.7201,21.7605,338.3851,0,U,66686,999,3010,.24412457E-3,.5096E-4,0
LEMUR-2-TEODOR,2025-276DG,2026-06-15T03:24:18.832032,15.21032247,.0002099,97.4156,239.9399,117.6264,242.5185,0,U,66768,999,3013,.26244423E-3,.5757E-4,0
LEMUR-2-LAILA,2025-276DQ,2026-06-15T12:15:29.698560,15.21256092,.00021249,97.4179,240.4229,138.0535,222.0864,0,U,66776,999,3019,.22558436E-3,.4971E-4,0
